{"epoch":1784799577,"count":18318,"objects":[{"id":"54880","name":"EROS C3","type":"PAYLOAD","l1":"1 54880U 22179A   26203.91336020  .00005390  00000-0  30085-3 0  9999","l2":"2 54880 139.3352 208.9864 0008688 231.0878 128.9155 15.11084813197739"}]}