{"fetched_at":"2026-07-23T07:05:37.080Z","source":"https://celestrak.org/NORAD/elements/gp.php?NAME=EROS&FORMAT=JSON","constellation":"eros","records":[{"OBJECT_NAME":"EROS C3","OBJECT_ID":"2022-179A","EPOCH":"2026-07-22T21:55:14.321280","CLASSIFICATION_TYPE":"U","MEAN_MOTION":15.11084813,"ECCENTRICITY":0.00086875,"INCLINATION":139.3352,"RA_OF_ASC_NODE":208.9864,"ARG_OF_PERICENTER":231.0878,"MEAN_ANOMALY":128.9155,"EPHEMERIS_TYPE":0,"NORAD_CAT_ID":54880,"ELEMENT_SET_NO":999,"REV_AT_EPOCH":19773,"BSTAR":0.00030085466,"MEAN_MOTION_DOT":0.0000539,"MEAN_MOTION_DDOT":0}]}
